OBJECT_NAME,OBJECT_ID,EPOCH,MEAN_MOTION,ECCENTRICITY,INCLINATION,RA_OF_ASC_NODE,ARG_OF_PERICENTER,MEAN_ANOMALY,EPHEMERIS_TYPE,CLASSIFICATION_TYPE,NORAD_CAT_ID,ELEMENT_SET_NO,REV_AT_EPOCH,BSTAR,MEAN_MOTION_DOT,MEAN_MOTION_DDOT
POLYITAN-1,2014-033AJ,2026-07-12T00:58:18.380064,15.34143583,.0008162,98.0942,221.6676,73.0393,287.1741,0,U,40042,999,65740,.36063E-3,.11843E-3,0
TIGRISAT,2014-033AK,2026-07-11T08:52:24.274560,14.85242878,.00489566,97.7858,341.8319,356.9649,3.1262,0,U,40043,999,64921,.10764196E-3,.887E-5,0
LEMUR-1,2014-033AL,2026-07-11T21:11:51.417600,14.85331099,.0048047,97.7903,342.1444,358.8650,1.2448,0,U,40044,999,64913,.10759E-3,.888E-5,0
AEROCUBE 6A,2014-033AM,2026-07-12T01:39:06.568128,14.98323758,.0036618,97.7234,359.7579,291.7441,67.9886,0,U,40045,999,65034,.26138E-3,.3093E-4,0
AEROCUBE 6B,2014-033AN,2026-07-10T05:53:35.084544,14.99771692,.00379448,97.7203,357.7928,287.6201,72.0880,0,U,40046,999,65021,.25889665E-3,.3186E-4,0
SPOT 7,2014-034A,2026-07-12T04:19:02.559072,14.60978805,.0001564,98.0623,255.0261,97.0740,263.0639,0,U,40053,999,64078,.1458E-4,.26E-6,0
CANX-4,2014-034C,2026-07-12T03:29:06.815328,14.81308004,.0011495,98.3089,69.3710,293.7859,66.2147,0,U,40055,999,64822,.65105E-4,.451E-5,0
CANX-5,2014-034D,2026-07-12T03:26:26.255616,14.81325415,.0011493,98.3091,69.4141,293.9901,66.0106,0,U,40056,999,63903,.66166E-4,.459E-5,0
OCO 2,2014-035A,2026-07-12T03:37:29.239104,14.57130867,.0001457,98.2021,134.0648,81.3866,278.7497,0,U,40059,999,63968,.52731E-4,.192E-5,0
GONETS-M 8,2014-036A,2026-07-12T05:46:30.523584,12.42986533,.00311,82.5118,292.0189,95.0951,265.3679,0,U,40061,999,54556,.67191E-3,.103E-5,0
GONETS-M 9,2014-036B,2026-07-12T04:50:52.215936,12.42951581,.0024368,82.5116,292.1223,101.5874,258.7943,0,U,40062,999,54556,-.55329E-3,-.67E-6,0
GONETS-M 10,2014-036C,2026-07-12T04:25:29.625888,12.42946324,.0022983,82.5121,292.1489,88.6942,271.6771,0,U,40063,999,54535,.27347E-4,.14E-6,0
METEOR-M 2,2014-037A,2026-07-12T04:54:19.137888,14.21469584,.0005329,98.5123,168.0583,336.7440,23.3496,0,U,40069,999,62287,.18903E-3,.371E-5,0
DX1,2014-037C,2026-07-12T05:00:01.823616,14.90059527,.0006759,98.3876,156.4315,178.5847,181.5389,0,U,40071,999,64983,.92194E-4,.828E-5,0
SKYSAT-B,2014-037D,2026-07-11T20:53:17.414880,14.88087332,.00053095,98.3853,153.2453,183.3680,176.7500,0,U,40072,999,64963,.79264116E-4,.667E-5,0
UKUBE-1,2014-037F,2026-07-11T22:57:36.360576,15.13920284,.000328,98.4242,198.8382,93.2420,266.9184,0,U,40074,999,65230,.28459E-3,.5077E-4,0
TECHDEMOSAT-1 (TDS-1),2014-037H,2026-07-11T21:14:40.079904,15.13649220,.0006572,98.3822,187.5538,169.0701,191.0671,0,U,40076,999,65196,.24189E-3,.4272E-4,0
O3B FM3,2014-038A,2026-07-12T02:12:40.218624,5.00115676,.0002647,0.0477,352.7467,171.7392,195.5208,0,U,40079,999,21429,0,-.17E-6,0
O3B FM7,2014-038B,2026-07-11T05:43:43.132224,5.00115631,.00036206,0.0453,343.9930,94.9977,281.0494,0,U,40080,999,21908,0,-.14E-6,0
O3B FM6,2014-038C,2026-07-12T01:33:55.787328,5.00115671,.0002605,0.0464,349.8561,120.3756,249.7950,0,U,40081,999,21907,0,-.16E-6,0
O3B FM8,2014-038D,2026-07-11T22:02:44.958624,5.00116048,.0002757,0.0460,348.5043,121.3824,250.1418,0,U,40082,999,21918,0,-.16E-6,0
ORBCOMM FM109,2014-040A,2026-07-11T09:52:04.973952,14.58870325,.00016494,47.0045,336.9567,310.9227,49.1516,0,U,40086,999,63788,.67459469E-4,.148E-5,0
NAVSTAR 71 (USA 256),2014-045A,2026-07-11T11:37:40.026720,2.00559992,.00342538,55.3686,87.4969,118.3351,242.0458,0,U,40105,999,8656,0,-.38E-6,0
ASIASAT 8 (AMOS-7),2014-046A,2026-07-12T00:19:24.765312,1.00267127,.0001307,0.0270,37.4219,90.8652,271.7839,0,U,40107,999,10239,0,0,0
YAOGAN-20 01A,2014-047A,2026-07-12T04:26:54.124224,13.45443061,.0392112,63.3802,314.6928,14.8212,346.3927,0,U,40109,999,58580,-.13191E-3,-.215E-5,0
YAOGAN-20 01B,2014-047B,2026-07-12T04:29:22.142976,13.45441043,.0391966,63.3802,315.5669,14.8413,346.3736,0,U,40110,999,58564,-.50213E-4,-.138E-5,0
YAOGAN-20 01C,2014-047C,2026-07-12T04:15:29.765376,13.45450870,.0392035,63.3792,315.2680,15.2332,346.0109,0,U,40111,999,58565,-.12856E-3,-.212E-5,0
WORLDVIEW-3 (WV-3),2014-048A,2026-07-12T03:57:47.270880,14.85061333,.0001067,97.8557,267.6525,160.4981,199.6275,0,U,40115,999,64561,.53119E-4,.4E-5,0
GAOFEN-2,2014-049A,2026-07-12T04:13:40.631808,14.80923484,.0008054,98.0104,257.3581,143.2413,216.9352,0,U,40118,999,64293,-.39414E-4,-.358E-5,0
BRITE-PL2 (HEWELIUSZ),2014-049B,2026-07-11T21:01:11.261856,14.94681645,.0014633,97.9118,305.0696,33.0365,327.1766,0,U,40119,999,64513,.9874E-4,.1013E-4,0
GSAT0201 (GALILEO 5),2014-050A,2026-07-10T01:18:12.802176,1.85519753,.16778151,48.8500,272.4979,180.2883,179.6634,0,U,40128,999,7874,0,-.22E-6,0
